{"type": "FeatureCollection", "features": [ {"type": "Feature", "properties": {"norad_id": 42741, "name": "EUTELSAT 172B", "group": "eutelsat", "lat": -0.008410089847841364, "lon": -102.139276963723, "alt_km": 35787.26722244979, "timestamp": "2025-12-22T23:36:20.371530+00:00", "meta": {"OBJECT_NAME": "EUTELSAT 172B", "OBJECT_ID": "2017-029B", "EPOCH": "2025-12-22T12:16:14.561760", "MEAN_MOTION": 1.00270479, "ECCENTRICITY": 2.106e-05, "INCLINATION": 0.0277, "RA_OF_ASC_NODE": 116.0899, "ARG_OF_PERICENTER": 302.1342, "MEAN_ANOMALY": 29.1567, "EPHEMERIS_TYPE": 0, "CLASSIFICATION_TYPE": "U", "NORAD_CAT_ID": 42741, "ELEMENT_SET_NO": 999, "REV_AT_EPOCH": 3195, "BSTAR": 0, "MEAN_MOTION_DOT": 1.6e-07, "MEAN_MOTION_DDOT": 0}, "tle": {"line1": "1 42741U 17029B   25356.51127965  .00000016  00000+0  00000+0 0  9999", "line2": "2 42741   0.0277 116.0899 0000210 302.1342  29.1567  1.00270479 31956"}}, "geometry": {"type": "Point", "coordinates": [-102.139276963723, -0.008410089847841364]}}, {"type": "Feature", "properties": {"norad_id": 44334, "name": "EUTELSAT 7C", "group": "eutelsat", "lat": -0.047082859460058676, "lon": 92.82689258422886, "alt_km": 35798.954120385766, "timestamp": "2025-12-22T23:36:20.371543+00:00", "meta": {"OBJECT_NAME": "EUTELSAT 7C", "OBJECT_ID": "2019-034B", "EPOCH": "2025-12-22T03:54:38.524896", "MEAN_MOTION": 1.00270429, "ECCENTRICITY": 0.00031022, "INCLINATION": 0.0729, "RA_OF_ASC_NODE": 180.3118, "ARG_OF_PERICENTER": 75.1349, "MEAN_ANOMALY": 261.1679, "EPHEMERIS_TYPE": 0, "CLASSIFICATION_TYPE": "U", "NORAD_CAT_ID": 44334, "ELEMENT_SET_NO": 999, "REV_AT_EPOCH": 506, "BSTAR": 0, "MEAN_MOTION_DOT": 7e-07, "MEAN_MOTION_DDOT": 0}, "tle": {"line1": "1 44334U 19034B   25356.16294589  .00000070  00000+0  00000+0 0  9995", "line2": "2 44334   0.0729 180.3118 0003102  75.1349 261.1679  1.00270429  5063"}}, "geometry": {"type": "Point", "coordinates": [92.82689258422886, -0.047082859460058676]}}, {"type": "Feature", "properties": {"norad_id": 44624, "name": "EUTELSAT 5 WEST B", "group": "eutelsat", "lat": 0.08648740033548027, "lon": 80.86717596227561, "alt_km": 35798.854953346934, "timestamp": "2025-12-22T23:36:20.371555+00:00", "meta": {"OBJECT_NAME": "EUTELSAT 5 WEST B", "OBJECT_ID": "2019-067A", "EPOCH": "2025-12-22T06:17:32.611200", "MEAN_MOTION": 1.00271351, "ECCENTRICITY": 0.00030366, "INCLINATION": 0.0656, "RA_OF_ASC_NODE": 338.4706, "ARG_OF_PERICENTER": 292.1222, "MEAN_ANOMALY": 269.8665, "EPHEMERIS_TYPE": 0, "CLASSIFICATION_TYPE": "U", "NORAD_CAT_ID": 44624, "ELEMENT_SET_NO": 999, "REV_AT_EPOCH": 2266, "BSTAR": 0, "MEAN_MOTION_DOT": -2e-07, "MEAN_MOTION_DDOT": 0}, "tle": {"line1": "1 44624U 19067A   25356.26218300 -.00000020  00000+0  00000+0 0  9997", "line2": "2 44624   0.0656 338.4706 0003036 292.1222 269.8665  1.00271351 22660"}}, "geometry": {"type": "Point", "coordinates": [80.86717596227561, 0.08648740033548027]}}, {"type": "Feature", "properties": {"norad_id": 45027, "name": "EUTELSAT KONNECT", "group": "eutelsat", "lat": 0.021677890371905314, "lon": 93.0619556020028, "alt_km": 35791.8794493395, "timestamp": "2025-12-22T23:36:20.371567+00:00", "meta": {"OBJECT_NAME": "EUTELSAT KONNECT", "OBJECT_ID": "2020-005B", "EPOCH": "2025-12-22T08:03:44.941248", "MEAN_MOTION": 1.00271114, "ECCENTRICITY": 0.00013432, "INCLINATION": 0.071, "RA_OF_ASC_NODE": 94.4695, "ARG_OF_PERICENTER": 184.6256, "MEAN_ANOMALY": 300.1874, "EPHEMERIS_TYPE": 0, "CLASSIFICATION_TYPE": "U", "NORAD_CAT_ID": 45027, "ELEMENT_SET_NO": 999, "REV_AT_EPOCH": 2256, "BSTAR": 0, "MEAN_MOTION_DOT": 7.1e-07, "MEAN_MOTION_DDOT": 0}, "tle": {"line1": "1 45027U 20005B   25356.33593682  .00000071  00000+0  00000+0 0  9991", "line2": "2 45027   0.0710  94.4695 0001343 184.6256 300.1874  1.00271114 22563"}}, "geometry": {"type": "Point", "coordinates": [93.0619556020028, 0.021677890371905314]}}, {"type": "Feature", "properties": {"norad_id": 49056, "name": "EUTELSAT QUANTUM", "group": "eutelsat", "lat": 0.026971090214241673, "lon": 133.5449186706104, "alt_km": 35798.353611872866, "timestamp": "2025-12-22T23:36:20.371578+00:00", "meta": {"OBJECT_NAME": "EUTELSAT QUANTUM", "OBJECT_ID": "2021-069B", "EPOCH": "2025-12-22T11:40:46.657632", "MEAN_MOTION": 1.00271848, "ECCENTRICITY": 0.00034514, "INCLINATION": 0.0103, "RA_OF_ASC_NODE": 0.7201, "ARG_OF_PERICENTER": 280.5392, "MEAN_ANOMALY": 32.9332, "EPHEMERIS_TYPE": 0, "CLASSIFICATION_TYPE": "U", "NORAD_CAT_ID": 49056, "ELEMENT_SET_NO": 999, "REV_AT_EPOCH": 1615, "BSTAR": 0, "MEAN_MOTION_DOT": 1.48e-06, "MEAN_MOTION_DDOT": 0}, "tle": {"line1": "1 49056U 21069B   25356.48665113  .00000148  00000+0  00000+0 0  9998", "line2": "2 49056   0.0103   0.7201 0003451 280.5392  32.9332  1.00271848 16158"}}, "geometry": {"type": "Point", "coordinates": [133.5449186706104, 0.026971090214241673]}}, {"type": "Feature", "properties": {"norad_id": 53765, "name": "EUTELSAT KONNECT VHTS", "group": "eutelsat", "lat": 0.012923949311428928, "lon": 88.57646143384476, "alt_km": 35796.33036143129, "timestamp": "2025-12-22T23:36:20.371590+00:00", "meta": {"OBJECT_NAME": "EUTELSAT KONNECT VHTS", "OBJECT_ID": "2022-110A", "EPOCH": "2025-12-22T06:19:47.396064", "MEAN_MOTION": 1.00268157, "ECCENTRICITY": 0.00023759, "INCLINATION": 0.0607, "RA_OF_ASC_NODE": 98.8524, "ARG_OF_PERICENTER": 146.8852, "MEAN_ANOMALY": 303.0184, "EPHEMERIS_TYPE": 0, "CLASSIFICATION_TYPE": "U", "NORAD_CAT_ID": 53765, "ELEMENT_SET_NO": 999, "REV_AT_EPOCH": 505, "BSTAR": 0, "MEAN_MOTION_DOT": 3.9e-07, "MEAN_MOTION_DDOT": 0}, "tle": {"line1": "1 53765U 22110A   25356.26374301  .00000039  00000+0  00000+0 0  9999", "line2": "2 53765   0.0607  98.8524 0002375 146.8852 303.0184  1.00268157  5057"}}, "geometry": {"type": "Point", "coordinates": [88.57646143384476, 0.012923949311428928]}}, {"type": "Feature", "properties": {"norad_id": 54048, "name": "EUTELSAT HOTBIRD 13F", "group": "eutelsat", "lat": 0.032033214255688953, "lon": 98.8828778357841, "alt_km": 35786.806720232766, "timestamp": "2025-12-22T23:36:20.371602+00:00", "meta": {"OBJECT_NAME": "EUTELSAT HOTBIRD 13F", "OBJECT_ID": "2022-134A", "EPOCH": "2025-12-21T21:49:07.084128", "MEAN_MOTION": 1.00271763, "ECCENTRICITY": 0.00022808, "INCLINATION": 0.0525, "RA_OF_ASC_NODE": 292.4073, "ARG_OF_PERICENTER": 71.4737, "MEAN_ANOMALY": 67.1177, "EPHEMERIS_TYPE": 0, "CLASSIFICATION_TYPE": "U", "NORAD_CAT_ID": 54048, "ELEMENT_SET_NO": 999, "REV_AT_EPOCH": 1160, "BSTAR": 0, "MEAN_MOTION_DOT": 1.09e-06, "MEAN_MOTION_DDOT": 0}, "tle": {"line1": "1 54048U 22134A   25355.90910977  .00000109  00000+0  00000+0 0  9993", "line2": "2 54048   0.0525 292.4073 0002280  71.4737  67.1177  1.00271763 11607"}}, "geometry": {"type": "Point", "coordinates": [98.8828778357841, 0.032033214255688953]}}, {"type": "Feature", "properties": {"norad_id": 54225, "name": "EUTELSAT HOTBIRD 13G", "group": "eutelsat", "lat": -0.0006219318601696509, "lon": 98.89080802528122, "alt_km": 35782.88695670513, "timestamp": "2025-12-22T23:36:20.371614+00:00", "meta": {"OBJECT_NAME": "EUTELSAT HOTBIRD 13G", "OBJECT_ID": "2022-146A", "EPOCH": "2025-12-22T04:02:38.705856", "MEAN_MOTION": 1.00287196, "ECCENTRICITY": 6.245e-05, "INCLINATION": 0.0535, "RA_OF_ASC_NODE": 228.1743, "ARG_OF_PERICENTER": 347.6873, "MEAN_ANOMALY": 308.7697, "EPHEMERIS_TYPE": 0, "CLASSIFICATION_TYPE": "U", "NORAD_CAT_ID": 54225, "ELEMENT_SET_NO": 999, "REV_AT_EPOCH": 569, "BSTAR": 0, "MEAN_MOTION_DOT": 1.11e-06, "MEAN_MOTION_DDOT": 0}, "tle": {"line1": "1 54225U 22146A   25356.16850354  .00000111  00000+0  00000+0 0  9997", "line2": "2 54225   0.0535 228.1743 0000624 347.6873 308.7697  1.00287196  5694"}}, "geometry": {"type": "Point", "coordinates": [98.89080802528122, -0.0006219318601696509]}}, {"type": "Feature", "properties": {"norad_id": 54259, "name": "EUTELSAT 10B", "group": "eutelsat", "lat": 0.02240031177553293, "lon": 95.88067667960182, "alt_km": 35782.63911745585, "timestamp": "2025-12-22T23:36:20.371626+00:00", "meta": {"OBJECT_NAME": "EUTELSAT 10B", "OBJECT_ID": "2022-157A", "EPOCH": "2025-12-22T08:04:37.356672", "MEAN_MOTION": 1.00272706, "ECCENTRICITY": 7.394e-05, "INCLINATION": 0.0599, "RA_OF_ASC_NODE": 96.663, "ARG_OF_PERICENTER": 1.955, "MEAN_ANOMALY": 123.7005, "EPHEMERIS_TYPE": 0, "CLASSIFICATION_TYPE": "U", "NORAD_CAT_ID": 54259, "ELEMENT_SET_NO": 999, "REV_AT_EPOCH": 1125, "BSTAR": 0, "MEAN_MOTION_DOT": 9e-07, "MEAN_MOTION_DDOT": 0}, "tle": {"line1": "1 54259U 22157A   25356.33654348  .00000090  00000+0  00000+0 0  9996", "line2": "2 54259   0.0599  96.6630 0000739   1.9550 123.7005  1.00272706 11251"}}, "geometry": {"type": "Point", "coordinates": [95.88067667960182, 0.02240031177553293]}}, {"type": "Feature", "properties": {"norad_id": 59346, "name": "EUTELSAT 36D", "group": "eutelsat", "lat": 0.045285404800652636, "lon": 121.73184186948852, "alt_km": 35787.77133431142, "timestamp": "2025-12-22T23:36:20.371637+00:00", "meta": {"OBJECT_NAME": "EUTELSAT 36D", "OBJECT_ID": "2024-059A", "EPOCH": "2025-12-22T12:47:38.770368", "MEAN_MOTION": 1.00274753, "ECCENTRICITY": 8.098e-05, "INCLINATION": 0.0226, "RA_OF_ASC_NODE": 34.0425, "ARG_OF_PERICENTER": 308.3114, "MEAN_ANOMALY": 336.7565, "EPHEMERIS_TYPE": 0, "CLASSIFICATION_TYPE": "U", "NORAD_CAT_ID": 59346, "ELEMENT_SET_NO": 999, "REV_AT_EPOCH": 637, "BSTAR": 0, "MEAN_MOTION_DOT": 0, "MEAN_MOTION_DDOT": 0}, "tle": {"line1": "1 59346U 24059A   25356.53308762  .00000000  00000+0  00000+0 0  9990", "line2": "2 59346   0.0226  34.0425 0000809 308.3114 336.7565  1.00274753  6374"}}, "geometry": {"type": "Point", "coordinates": [121.73184186948852, 0.045285404800652636]}}]}